{
  "type": "FeatureCollection",
  "features": [
    {
      "type": "Feature",
      "properties": {
        "norad_id": 22490,
        "name": "SCD 1",
        "group": "resource",
        "lat": -23.529074478941986,
        "lon": 88.00835385942568,
        "alt_km": 764.9534302386437,
        "timestamp": "2025-12-25T16:53:14.310225+00:00",
        "meta_object_name": "SCD 1",
        "meta_object_id": "1993-009B",
        "meta_epoch": "2025-12-24T21:37:14.666016",
        "meta_mean_motion": 14.46006798,
        "meta_eccentricity": 0.004218,
        "meta_inclination": 24.9676,
        "meta_ra_of_asc_node": 203.6132,
        "meta_arg_of_pericenter": 93.4836,
        "meta_mean_anomaly": 289.9521,
        "meta_ephemeris_type": 0,
        "meta_classification_type": "U",
        "meta_norad_cat_id": 22490,
        "meta_element_set_no": 999,
        "meta_rev_at_epoch": 73586,
        "meta_bstar": 8.1285e-05,
        "meta_mean_motion_dot": 4.83e-06,
        "meta_mean_motion_ddot": 0,
        "tle_line1": "1 22490U 93009B   25358.90086419  .00000483  00000+0  81285-4 0  9990",
        "tle_line2": "2 22490  24.9676 203.6132 0042180  93.4836 289.9521 14.46006798735868"
      },
      "geometry": {
        "type": "Point",
        "coordinates": [
          88.00835385942568,
          -23.529074478941986
        ]
      }
    },
    {
      "type": "Feature",
      "properties": {
        "norad_id": 25397,
        "name": "TECHSAT 1B (GO-32)",
        "group": "resource",
        "lat": 7.3959136557541765,
        "lon": -17.962341187355428,
        "alt_km": 811.4085088145075,
        "timestamp": "2025-12-25T16:53:14.310250+00:00",
        "meta_object_name": "TECHSAT 1B (GO-32)",
        "meta_object_id": "1998-043D",
        "meta_epoch": "2025-12-24T20:37:17.748480",
        "meta_mean_motion": 14.24380271,
        "meta_eccentricity": 0.00016683,
        "meta_inclination": 98.9932,
        "meta_ra_of_asc_node": 342.3516,
        "meta_arg_of_pericenter": 37.3772,
        "meta_mean_anomaly": 322.7522,
        "meta_ephemeris_type": 0,
        "meta_classification_type": "U",
        "meta_norad_cat_id": 25397,
        "meta_element_set_no": 999,
        "meta_rev_at_epoch": 42651,
        "meta_bstar": 5.2942367e-05,
        "meta_mean_motion_dot": 7.6e-07,
        "meta_mean_motion_ddot": 0,
        "tle_line1": "1 25397U 98043D   25358.85923320  .00000076  00000+0  52942-4 0  9993",
        "tle_line2": "2 25397  98.9932 342.3516 0001668  37.3772 322.7522 14.24380271426515"
      },
      "geometry": {
        "type": "Point",
        "coordinates": [
          -17.962341187355428,
          7.3959136557541765
        ]
      }
    },
    {
      "type": "Feature",
      "properties": {
        "norad_id": 25504,
        "name": "SCD 2",
        "group": "resource",
        "lat": -24.17697834153272,
        "lon": -43.549375550124346,
        "alt_km": 752.9452859591274,
        "timestamp": "2025-12-25T16:53:14.310266+00:00",
        "meta_object_name": "SCD 2",
        "meta_object_id": "1998-060A",
        "meta_epoch": "2025-12-24T13:48:55.433376",
        "meta_mean_motion": 14.45429519,
        "meta_eccentricity": 0.00170635,
        "meta_inclination": 24.9954,
        "meta_ra_of_asc_node": 68.9145,
        "meta_arg_of_pericenter": 78.1649,
        "meta_mean_anomaly": 56.1547,
        "meta_ephemeris_type": 0,
        "meta_classification_type": "U",
        "meta_norad_cat_id": 25504,
        "meta_element_set_no": 999,
        "meta_rev_at_epoch": 43503,
        "meta_bstar": 7.2332367e-05,
        "meta_mean_motion_dot": 4.41e-06,
        "meta_mean_motion_ddot": 0,
        "tle_line1": "1 25504U 98060A   25358.57564159  .00000441  00000+0  72332-4 0  9993",
        "tle_line2": "2 25504  24.9954  68.9145 0017063  78.1649  56.1547 14.45429519435033"
      },
      "geometry": {
        "type": "Point",
        "coordinates": [
          -43.549375550124346,
          -24.17697834153272
        ]
      }
    },
    {
      "type": "Feature",
      "properties": {
        "norad_id": 25757,
        "name": "DLR-TUBSAT",
        "group": "resource",
        "lat": 81.32534876949933,
        "lon": -102.28846269503408,
        "alt_km": 705.98941466218,
        "timestamp": "2025-12-25T16:53:14.310279+00:00",
        "meta_object_name": "DLR-TUBSAT",
        "meta_object_id": "1999-029B",
        "meta_epoch": "2025-12-17T13:22:10.787520",
        "meta_mean_motion": 14.52359578,
        "meta_eccentricity": 0.00141996,
        "meta_inclination": 98.6566,
        "meta_ra_of_asc_node": 336.2196,
        "meta_arg_of_pericenter": 177.8976,
        "meta_mean_anomaly": 182.2281,
        "meta_ephemeris_type": 0,
        "meta_classification_type": "U",
        "meta_norad_cat_id": 25757,
        "meta_element_set_no": 999,
        "meta_rev_at_epoch": 40688,
        "meta_bstar": 3.7650132e-05,
        "meta_mean_motion_dot": 1.05e-06,
        "meta_mean_motion_ddot": 0,
        "tle_line1": "1 25757U 99029B   25351.55706930  .00000105  00000+0  37650-4 0  9996",
        "tle_line2": "2 25757  98.6566 336.2196 0014199 177.8976 182.2281 14.52359578406886"
      },
      "geometry": {
        "type": "Point",
        "coordinates": [
          -102.28846269503408,
          81.32534876949933
        ]
      }
    },
    {
      "type": "Feature",
      "properties": {
        "norad_id": 25994,
        "name": "TERRA",
        "group": "resource",
        "lat": -10.606927564570626,
        "lon": -130.59280879130057,
        "alt_km": 695.7779269126795,
        "timestamp": "2025-12-25T16:53:14.310292+00:00",
        "meta_object_name": "TERRA",
        "meta_object_id": "1999-068A",
        "meta_epoch": "2025-12-25T06:27:02.961792",
        "meta_mean_motion": 14.60915446,
        "meta_eccentricity": 0.00034208,
        "meta_inclination": 97.9731,
        "meta_ra_of_asc_node": 50.4924,
        "meta_arg_of_pericenter": 69.5688,
        "meta_mean_anomaly": 355.332,
        "meta_ephemeris_type": 0,
        "meta_classification_type": "U",
        "meta_norad_cat_id": 25994,
        "meta_element_set_no": 999,
        "meta_rev_at_epoch": 38421,
        "meta_bstar": 0.00010627142,
        "meta_mean_motion_dot": 4.76e-06,
        "meta_mean_motion_ddot": 0,
        "tle_line1": "1 25994U 99068A   25359.26878428  .00000476  00000+0  10627-3 0  9995",
        "tle_line2": "2 25994  97.9731  50.4924 0003420  69.5688 355.3320 14.60915446384211"
      },
      "geometry": {
        "type": "Point",
        "coordinates": [
          -130.59280879130057,
          -10.606927564570626
        ]
      }
    },
    {
      "type": "Feature",
      "properties": {
        "norad_id": 27004,
        "name": "MAROC-TUBSAT",
        "group": "resource",
        "lat": -78.4795918278402,
        "lon": -133.71245466453882,
        "alt_km": 996.8390535937933,
        "timestamp": "2025-12-25T16:53:14.310304+00:00",
        "meta_object_name": "MAROC-TUBSAT",
        "meta_object_id": "2001-056D",
        "meta_epoch": "2025-12-25T07:22:34.254624",
        "meta_mean_motion": 13.70253491,
        "meta_eccentricity": 0.0019281,
        "meta_inclination": 99.7917,
        "meta_ra_of_asc_node": 167.9726,
        "meta_arg_of_pericenter": 226.8233,
        "meta_mean_anomaly": 255.2272,
        "meta_ephemeris_type": 0,
        "meta_classification_type": "U",
        "meta_norad_cat_id": 27004,
        "meta_element_set_no": 999,
        "meta_rev_at_epoch": 20237,
        "meta_bstar": 2.7504696e-05,
        "meta_mean_motion_dot": -2.2e-07,
        "meta_mean_motion_ddot": 0,
        "tle_line1": "1 27004U 01056D   25359.30734091 -.00000022  00000+0  27505-4 0  9993",
        "tle_line2": "2 27004  99.7917 167.9726 0019281 226.8233 255.2272 13.70253491202376"
      },
      "geometry": {
        "type": "Point",
        "coordinates": [
          -133.71245466453882,
          -78.4795918278402
        ]
      }
    },
    {
      "type": "Feature",
      "properties": {
        "norad_id": 27424,
        "name": "AQUA",
        "group": "resource",
        "lat": 70.00576609023553,
        "lon": 164.7722396751195,
        "alt_km": 679.4382578486166,
        "timestamp": "2025-12-25T16:53:14.310315+00:00",
        "meta_object_name": "AQUA",
        "meta_object_id": "2002-022A",
        "meta_epoch": "2025-12-24T19:18:33.414624",
        "meta_mean_motion": 14.61757572,
        "meta_eccentricity": 0.00018094,
        "meta_inclination": 98.4055,
        "meta_ra_of_asc_node": 319.881,
        "meta_arg_of_pericenter": 102.1365,
        "meta_mean_anomaly": 317.5475,
        "meta_ephemeris_type": 0,
        "meta_classification_type": "U",
        "meta_norad_cat_id": 27424,
        "meta_element_set_no": 999,
        "meta_rev_at_epoch": 25779,
        "meta_bstar": 0.00019560508,
        "meta_mean_motion_dot": 9.26e-06,
        "meta_mean_motion_ddot": 0,
        "tle_line1": "1 27424U 02022A   25358.80455341  .00000926  00000+0  19561-3 0  9999",
        "tle_line2": "2 27424  98.4055 319.8810 0001809 102.1365 317.5475 14.61757572257795"
      },
      "geometry": {
        "type": "Point",
        "coordinates": [
          164.7722396751195,
          70.00576609023553
        ]
      }
    }
  ]
}